NORAD_CAT_ID,OBJECT_NAME,OBJECT_TYPE,EPOCH,MEAN_MOTION,ECCENTRICITY,INCLINATION,RA_OF_ASC_NODE,ARG_OF_PERICENTER,MEAN_ANOMALY,BSTAR,MEAN_MOTION_DOT,MEAN_MOTION_DDOT,TLE_LINE0,TLE_LINE1,TLE_LINE2,SEMIMAJOR_AXIS,PERIOD,APOGEE,PERIGEE,DECAYED
53542.0,STARLINK-4489,PAYLOAD,2022-10-14 18:00:00,15.35826658,0.000117,53.2174,240.5847,78.2239,7.6903,-0.032882,-0.01067449,0.0,0 STARLINK-4489,1 53542U 22101R   22287.75001157 -.01067449  00000-0 -32882-1 0  9999,2 53542  53.2174 240.5847 0001170  78.2239   7.6903 15.35826658  1301,6836.603,93.761,459.268,457.668,0.0
53542.0,STARLINK-4489,PAYLOAD,2022-10-15 14:00:01,15.33929442,0.0001147,53.2175,236.6869,69.5624,303.5391,-0.0350269999999999,-0.01069704,0.0,0 STARLINK-4489,1 53542U 22101R   22288.58334491 -.01069704  00000-0 -35027-1 0  9991,2 53542  53.2175 236.6869 0001147  69.5624 303.5391 15.33929442  8924,6842.239000000001,93.877,464.889,463.319,0.0
53542.0,STARLINK-4489,PAYLOAD,2022-10-15 22:00:01,15.33169019,0.0001389,53.2176,235.1305,52.1536,2.2902,-0.035798,-0.01067371,0.0,0 STARLINK-4489,1 53542U 22101R   22288.91668981 -.01067371  00000-0 -35798-1 0  9995,2 53542  53.2176 235.1305 0001389  52.1536   2.2902 15.33169019  1304,6844.501,93.923,467.317,465.416,0.0
53542.0,STARLINK-4489,PAYLOAD,2022-10-16 14:00:01,15.3164939,0.0001345,53.2175,232.0237,67.8087,66.3896,-0.037519,-0.01066327,0.0,0 STARLINK-4489,1 53542U 22101R   22289.58334491 -.01066327  00000-0 -37519-1 0  9998,2 53542  53.2175 232.0237 0001345  67.8087  66.3896 15.31649390  9077,6849.028,94.016,471.814,469.972,0.0
53542.0,STARLINK-4489,PAYLOAD,2022-10-16 22:00:00,15.30889373,0.0001403,53.2178,230.4729,71.8924,100.8461,-0.03838,-0.01065212,0.0,0 STARLINK-4489,1 53542U 22101R   22289.91667824 -.01065212  00000-0 -38380-1 0  9993,2 53542  53.2178 230.4729 0001403  71.8924 100.8461 15.30889373  1304,6851.294,94.063,474.121,472.198,0.0
53542.0,STARLINK-4489,PAYLOAD,2022-10-17 14:00:01,15.29371512,0.0001426,53.2176,227.3764,60.3499,186.7305,-0.040306,-0.01066871,0.0,0 STARLINK-4489,1 53542U 22101R   22290.58334491 -.01066871  00000-0 -40306-1 0  9992,2 53542  53.2176 227.3764 0001426  60.3499 186.7305 15.29371512  9229,6855.8269999999975,94.156,478.67,476.714,0.0
53542.0,STARLINK-4489,PAYLOAD,2022-10-17 22:00:00,15.28611324,0.0001279,53.2177,225.8312,79.7568,203.1258,-0.041201,-0.01065326,0.0,0 STARLINK-4489,1 53542U 22101R   22290.91667824 -.01065326  00000-0 -41201-1 0  9997,2 53542  53.2177 225.8312 0001279  79.7568 203.1258 15.28611324  1308,6858.1,94.203,480.842,479.088,0.0
53542.0,STARLINK-4489,PAYLOAD,2022-10-18 14:00:01,15.27092218,0.0001154,53.2175,222.7454,73.48,278.2693,-0.043191,-0.01065807,0.0,0 STARLINK-4489,1 53542U 22101R   22291.58334491 -.01065807  00000-0 -43191-1 0  9996,2 53542  53.2175 222.7454 0001154  73.4800 278.2693 15.27092218  9387,6862.647,94.297,485.304,483.72,0.0
53542.0,STARLINK-4489,PAYLOAD,2022-10-18 22:00:00,15.26333853,0.0001307,53.2177,221.2057,57.8221,326.9905,-0.044259,-0.01067106,0.0,0 STARLINK-4489,1 53542U 22101R   22291.91667824 -.01067106  00000-0 -44259-1 0  9992,2 53542  53.2177 221.2057 0001307  57.8221 326.9905 15.26333853  1308,6864.92,94.344,487.682,485.888,0.0
53542.0,STARLINK-4489,PAYLOAD,2022-10-19 14:00:01,15.24812299,0.0001281,53.2175,218.1304,66.0831,22.1212,-0.046164,-0.01063242,0.0,0 STARLINK-4489,1 53542U 22101R   22292.58334491 -.01063242  00000-0 -46164-1 0  9991,2 53542  53.2175 218.1304 0001281  66.0831  22.1212 15.24812299  1306,6869.486,94.438,492.231,490.471,0.0
53542.0,STARLINK-4489,PAYLOAD,2022-10-19 22:00:00,15.24054351,0.0001418,53.2176,216.5962,62.4981,56.0314,-0.047343,-0.01065628,0.0,0 STARLINK-4489,1 53542U 22101R   22292.91667824 -.01065628  00000-0 -47343-1 0  9997,2 53542  53.2176 216.5962 0001418  62.4981  56.0314 15.24054351  1303,6871.764,94.485,494.603,492.654,0.0
53542.0,STARLINK-4489,PAYLOAD,2022-10-20 14:00:01,15.22533162,0.0001353,53.2174,213.5315,81.684,94.7609,-0.049337,-0.01061515,0.0,0 STARLINK-4489,1 53542U 22101R   22293.58334491 -.01061515  00000-0 -49337-1 0  9998,2 53542  53.2174 213.5315 0001353  81.6840  94.7609 15.22533162  9680,6876.34,94.579,499.135,497.275,0.0
53542.0,STARLINK-4489,PAYLOAD,2022-10-20 22:00:00,15.21774403,0.0001399,53.2177,212.0028,82.4925,121.5399,-0.050529,-0.0106284,0.0,0 STARLINK-4489,1 53542U 22101R   22293.91667824 -.01062840  00000-0 -50529-1 0  9991,2 53542  53.2177 212.0028 0001399  82.4925 121.5399 15.21774403  1301,6878.625,94.626,501.453,499.528,0.0
53542.0,STARLINK-4489,PAYLOAD,2022-10-21 14:00:01,15.20253967,0.0001353,53.2174,208.9485,70.6577,185.8139,-0.052694,-0.01060028,0.0,0 STARLINK-4489,1 53542U 22101R   22294.58334491 -.01060028  00000-0 -52694-1 0  9997,2 53542  53.2174 208.9485 0001353  70.6577 185.8139 15.20253967  1302,6883.2109999999975,94.721,506.007,504.145,0.0
53542.0,STARLINK-4489,PAYLOAD,2022-10-21 22:00:00,15.19499563,0.0001312,53.2167,207.426,79.4862,201.8322,-0.054276,-0.01067316,0.0,0 STARLINK-4489,1 53542U 22101R   22294.91667824 -.01067316  00000-0 -54276-1 0  9998,2 53542  53.2167 207.4260 0001312  79.4862 201.8322 15.19499563  1303,6885.489000000001,94.768,508.257,506.451,0.0
53542.0,STARLINK-4489,PAYLOAD,2022-10-22 14:00:01,15.17974534,0.0001188,53.2174,204.3815,79.7737,248.5108,-0.056232,-0.01071919,0.0,0 STARLINK-4489,1 53542U 22101R   22295.58334491 -.01071919  00000-0 -56232-1 0  9991,2 53542  53.2174 204.3815 0001188  79.7737 248.5108 15.17974534  9995,6890.1,94.863,512.783,511.146,0.0
53542.0,STARLINK-4489,PAYLOAD,2022-10-22 22:00:00,15.17231044,0.000121,53.2165,202.8647,80.5158,269.8721,-0.058776,-0.01094798,0.0,0 STARLINK-4489,1 53542U 22101R   22295.91667824 -.01094798  00000-0 -58776-1 0  9992,2 53542  53.2165 202.8647 0001210  80.5158 269.8721 15.17231044  1300,6892.351,94.91,515.05,513.382,0.0
53542.0,STARLINK-4489,PAYLOAD,2022-10-23 14:00:01,15.15695892,0.0001179,53.2174,199.8305,75.8296,316.0536,-0.060034,-0.01071799,0.0,0 STARLINK-4489,1 53542U 22101R   22296.58334491 -.01071799  00000-0 -60034-1 0  9993,2 53542  53.2174 199.8305 0001179  75.8296 316.0536 15.15695892  1302,6897.004,95.006,519.682,518.056,0.0
53542.0,STARLINK-4489,PAYLOAD,2022-10-23 22:00:00,15.14955316,0.0001223,53.2165,198.3193,86.0049,325.2421,-0.0629769999999999,-0.010987,0.0,0 STARLINK-4489,1 53542U 22101R   22296.91667824 -.01098700  00000-0 -62977-1 0  9998,2 53542  53.2165 198.3193 0001223  86.0049 325.2421 15.14955316  1305,6899.251,95.052,521.96,520.2719999999998,0.0
53542.0,STARLINK-4489,PAYLOAD,2022-10-24 14:00:01,15.13418161,0.0001274999999999,53.2173,195.2954,75.2481,12.0195,-0.064131,-0.01073133,0.0,0 STARLINK-4489,1 53542U 22101R   22297.58334491 -.01073133  00000-0 -64131-1 0  9990,2 53542  53.2173 195.2954 0001275  75.2481  12.0195 15.13418161 10290,6903.922,95.149,526.6669999999998,524.9069999999998,0.0
53542.0,STARLINK-4489,PAYLOAD,2022-10-24 22:00:00,15.12668792,0.0001306,53.2163,193.7897,83.7805,20.1168,-0.06644,-0.01087421,0.0,0 STARLINK-4489,1 53542U 22101R   22297.91667824 -.01087421  00000-0 -66440-1 0  9996,2 53542  53.2163 193.7897 0001306  83.7805  20.1168 15.12668792  1305,6906.2019999999975,95.196,528.969,527.165,0.0
53542.0,STARLINK-4489,PAYLOAD,2022-10-25 14:00:01,15.11140552,0.0001379,53.2173,190.7762,75.8636,58.5742,-0.068466,-0.01074665,0.0,0 STARLINK-4489,1 53542U 22101R   22298.58334491 -.01074665  00000-0 -68466-1 0  9997,2 53542  53.2173 190.7762 0001379  75.8636  58.5742 15.11140552  1309,6910.857,95.292,533.675,531.769,0.0
53542.0,STARLINK-4489,PAYLOAD,2022-10-25 22:00:01,15.10389055,0.0001353,53.2162,189.2758,88.3924,60.0014,-0.070735,-0.01086371,0.0,0 STARLINK-4489,1 53542U 22101R   22298.91668981 -.01086371  00000-0 -70735-1 0  9997,2 53542  53.2162 189.2758 0001353  88.3924  60.0014 15.10389055  1308,6913.15,95.34,535.95,534.0790000000002,0.0
53542.0,STARLINK-4489,PAYLOAD,2022-10-26 14:00:01,15.08884844,0.0001186,53.2173,186.2751,75.5578,97.8894,-0.0050528,-0.00079908,0.0,0 STARLINK-4489,1 53542U 22101R   22299.58334491 -.00079908  00000-0 -50528-2 0  9993,2 53542  53.2173 186.2751 0001186  75.5578  97.8894 15.08884844 10595,6917.743,95.435,540.429,538.788,0.0
53542.0,STARLINK-4489,PAYLOAD,2022-10-26 22:00:00,15.08835631,0.0001396999999999,53.2174,184.7801,74.7765,110.2844,0.00010547,1.391e-05,0.0,0 STARLINK-4489,1 53542U 22101R   22299.91667824  .00001391  00000-0  10547-3 0  9996,2 53542  53.2174 184.7801 0001397  74.7765 110.2844 15.08835631  1302,6917.894,95.438,540.725,538.7919999999998,0.0
53542.0,STARLINK-4489,PAYLOAD,2022-10-27 06:00:00,15.08858007,0.0001233,53.2115,183.2915,68.0866,128.5991,-0.0013208,-0.00021257,0.0,0 STARLINK-4489,1 53542U 22101R   22300.25001157 -.00021257  00000-0 -13208-2 0  9998,2 53542  53.2115 183.2915 0001233  68.0866 128.5991 15.08858007 10693,6917.825,95.436,540.543,538.837,0.0
53542.0,STARLINK-4489,PAYLOAD,2022-10-27 14:00:01,15.08819416,0.0001256,53.212,181.7932,79.2061,129.1709,2.0085e-05,3.2e-07,0.0,0 STARLINK-4489,1 53542U 22101R   22300.58335648  .00000032  00000-0  20085-4 0  9998,2 53542  53.2120 181.7932 0001256  79.2061 129.1709 15.08819416  1300,6917.943,95.439,540.677,538.939,0.0
53542.0,STARLINK-4489,PAYLOAD,2022-10-27 22:00:00,15.08822223,0.0001426999999999,53.212,180.2984,73.4454,146.4408,-0.00046416,-7.664e-05,0.0,0 STARLINK-4489,1 53542U 22101R   22300.91667824 -.00007664  00000-0 -46416-3 0  9994,2 53542  53.2120 180.2984 0001427  73.4454 146.4408 15.08822223  1301,6917.935,95.439,540.7869999999998,538.813,0.0
53542.0,STARLINK-4489,PAYLOAD,2022-10-28 14:00:01,15.08824898,0.0001368,53.2122,177.3036,79.7787,163.3408,0.0030278,0.00048209,0.0,0 STARLINK-4489,1 53542U 22101R   22301.58335648  .00048209  00000-0  30278-2 0  9990,2 53542  53.2122 177.3036 0001368  79.7787 163.3408 15.08824898  1308,6917.927,95.439,540.738,538.845,0.0
